QIANFAN-1               
1 60379U 24140A   26204.84495007  .00000070  00000+0  90149-4 0  9990
2 60379  88.9724 276.1297 0015207 292.2600  67.6938 13.51021504 97473
QIANFAN-2               
1 60380U 24140B   26204.79980478  .00000062  00000+0  77808-4 0  9995
2 60380  88.9711 275.9434 0010509 259.4113 100.5854 13.51017341 97529
QIANFAN-3               
1 60381U 24140C   26204.80798721  .00000076  00000+0  99306-4 0  9998
2 60381  88.9704 276.0582 0011542 274.7620  85.2213 13.51018400 97434
QIANFAN-4               
1 60382U 24140D   26204.78320566  .00000076  00000+0  98637-4 0  9990
2 60382  88.9729 276.0147 0010701 262.6770  97.3165 13.51021387 97558
QIANFAN-5               
1 60383U 24140E   26204.83270100  .00000072  00000+0  92943-4 0  9995
2 60383  88.9703 276.0803 0012818 288.1895  71.7860 13.51012041 97423
QIANFAN-6               
1 60384U 24140F   26204.85317265  .00000086  00000+0  11454-3 0  9994
2 60384  88.9730 275.8849 0010786 269.7322  90.2593 13.51020180 97627
QIANFAN-7               
1 60385U 24140G   26204.82112894  .00000405  00000+0  15750-3 0  9991
2 60385  88.9759 267.4704 0016078  35.9902 324.2372 14.27870202102223
QIANFAN-8               
1 60386U 24140H   26204.78741274  .00000082  00000+0  10794-3 0  9991
2 60386  88.9732 276.1320 0014233 272.8421  87.1101 13.51016541 97463
QIANFAN-9               
1 60387U 24140J   26204.83665773  .00000074  00000+0  95737-4 0  9999
2 60387  88.9729 276.1977 0013923 272.3566  87.5991 13.51022271 97455
QIANFAN-10              
1 60388U 24140K   26204.84077891  .00000068  00000+0  86137-4 0  9996
2 60388  88.9740 275.5678 0012682 245.6287 114.3541 13.51023436 97582
QIANFAN-11              
1 60389U 24140L   26204.80383113  .00000058  00000+0  70858-4 0  9992
2 60389  88.9665 275.9910 0011960 272.0644  87.9137 13.51017264 97231
QIANFAN-12              
1 60390U 24140M   26204.82445522  .00000088  00000+0  11729-3 0  9993
2 60390  88.9708 276.1294 0010775 281.8471  78.1471 13.51019515 97366
QIANFAN-13              
1 60391U 24140N   26204.79561152  .00000070  00000+0  89131-4 0  9992
2 60391  88.9721 276.2593 0010598 285.2541  74.7438 13.51019583 97386
QIANFAN-14              
1 60392U 24140P   26204.82039812  .00000023  00000+0  16594-4 0  9991
2 60392  88.9699 276.1072 0014277 284.6664  75.2904 13.51022439 97398
QIANFAN-15              
1 60393U 24140Q   26204.82857810  .00000075  00000+0  97552-4 0  9998
2 60393  88.9723 276.1159 0010098 268.1361  91.8633 13.51013538 97383
QIANFAN-16              
1 60394U 24140R   26204.81621199  .00000078  00000+0  10165-3 0  9994
2 60394  88.9726 276.2435 0012261 289.5524  70.4303 13.51021503 97295
