{"fetched_at":"2026-07-24T07:06:11.280Z","source":"https://celestrak.org/NORAD/elements/gp.php?GROUP=qianfan&FORMAT=JSON","constellation":"qianfan","records":[{"OBJECT_NAME":"QIANFAN-1","OBJECT_ID":"2024-140A","EPOCH":"2026-07-23T20:16:43.686048","CLASSIFICATION_TYPE":"U","MEAN_MOTION":13.51021504,"ECCENTRICITY":0.0015207,"INCLINATION":88.9724,"RA_OF_ASC_NODE":276.1297,"ARG_OF_PERICENTER":292.26,"MEAN_ANOMALY":67.6938,"EPHEMERIS_TYPE":0,"NORAD_CAT_ID":60379,"ELEMENT_SET_NO":999,"REV_AT_EPOCH":9747,"BSTAR":0.000090149,"MEAN_MOTION_DOT":7e-7,"MEAN_MOTION_DDOT":0},{"OBJECT_NAME":"QIANFAN-2","OBJECT_ID":"2024-140B","EPOCH":"2026-07-23T19:11:43.132992","CLASSIFICATION_TYPE":"U","MEAN_MOTION":13.51017341,"ECCENTRICITY":0.0010509,"INCLINATION":88.9711,"RA_OF_ASC_NODE":275.9434,"ARG_OF_PERICENTER":259.4113,"MEAN_ANOMALY":100.5854,"EPHEMERIS_TYPE":0,"NORAD_CAT_ID":60380,"ELEMENT_SET_NO":999,"REV_AT_EPOCH":9752,"BSTAR":0.000077808,"MEAN_MOTION_DOT":6.2e-7,"MEAN_MOTION_DDOT":0},{"OBJECT_NAME":"QIANFAN-3","OBJECT_ID":"2024-140C","EPOCH":"2026-07-23T19:23:30.094944","CLASSIFICATION_TYPE":"U","MEAN_MOTION":13.510184,"ECCENTRICITY":0.0011542,"INCLINATION":88.9704,"RA_OF_ASC_NODE":276.0582,"ARG_OF_PERICENTER":274.762,"MEAN_ANOMALY":85.2213,"EPHEMERIS_TYPE":0,"NORAD_CAT_ID":60381,"ELEMENT_SET_NO":999,"REV_AT_EPOCH":9743,"BSTAR":0.000099306,"MEAN_MOTION_DOT":7.6e-7,"MEAN_MOTION_DDOT":0},{"OBJECT_NAME":"QIANFAN-4","OBJECT_ID":"2024-140D","EPOCH":"2026-07-23T18:47:48.969024","CLASSIFICATION_TYPE":"U","MEAN_MOTION":13.51021387,"ECCENTRICITY":0.0010701,"INCLINATION":88.9729,"RA_OF_ASC_NODE":276.0147,"ARG_OF_PERICENTER":262.677,"MEAN_ANOMALY":97.3165,"EPHEMERIS_TYPE":0,"NORAD_CAT_ID":60382,"ELEMENT_SET_NO":999,"REV_AT_EPOCH":9755,"BSTAR":0.000098637,"MEAN_MOTION_DOT":7.6e-7,"MEAN_MOTION_DDOT":0},{"OBJECT_NAME":"QIANFAN-5","OBJECT_ID":"2024-140E","EPOCH":"2026-07-23T19:59:05.366400","CLASSIFICATION_TYPE":"U","MEAN_MOTION":13.51012041,"ECCENTRICITY":0.0012818,"INCLINATION":88.9703,"RA_OF_ASC_NODE":276.0803,"ARG_OF_PERICENTER":288.1895,"MEAN_ANOMALY":71.786,"EPHEMERIS_TYPE":0,"NORAD_CAT_ID":60383,"ELEMENT_SET_NO":999,"REV_AT_EPOCH":9742,"BSTAR":0.000092943,"MEAN_MOTION_DOT":7.2e-7,"MEAN_MOTION_DDOT":0},{"OBJECT_NAME":"QIANFAN-6","OBJECT_ID":"2024-140F","EPOCH":"2026-07-23T20:28:34.116960","CLASSIFICATION_TYPE":"U","MEAN_MOTION":13.5102018,"ECCENTRICITY":0.0010786,"INCLINATION":88.973,"RA_OF_ASC_NODE":275.8849,"ARG_OF_PERICENTER":269.7322,"MEAN_ANOMALY":90.2593,"EPHEMERIS_TYPE":0,"NORAD_CAT_ID":60384,"ELEMENT_SET_NO":999,"REV_AT_EPOCH":9762,"BSTAR":0.00011454,"MEAN_MOTION_DOT":8.6e-7,"MEAN_MOTION_DDOT":0},{"OBJECT_NAME":"QIANFAN-7","OBJECT_ID":"2024-140G","EPOCH":"2026-07-23T19:42:25.540416","CLASSIFICATION_TYPE":"U","MEAN_MOTION":14.27870202,"ECCENTRICITY":0.0016078,"INCLINATION":88.9759,"RA_OF_ASC_NODE":267.4704,"ARG_OF_PERICENTER":35.9902,"MEAN_ANOMALY":324.2372,"EPHEMERIS_TYPE":0,"NORAD_CAT_ID":60385,"ELEMENT_SET_NO":999,"REV_AT_EPOCH":10222,"BSTAR":0.0001575,"MEAN_MOTION_DOT":0.00000405,"MEAN_MOTION_DDOT":0},{"OBJECT_NAME":"QIANFAN-8","OBJECT_ID":"2024-140H","EPOCH":"2026-07-23T18:53:52.460736","CLASSIFICATION_TYPE":"U","MEAN_MOTION":13.51016541,"ECCENTRICITY":0.0014233,"INCLINATION":88.9732,"RA_OF_ASC_NODE":276.132,"ARG_OF_PERICENTER":272.8421,"MEAN_ANOMALY":87.1101,"EPHEMERIS_TYPE":0,"NORAD_CAT_ID":60386,"ELEMENT_SET_NO":999,"REV_AT_EPOCH":9746,"BSTAR":0.00010794,"MEAN_MOTION_DOT":8.2e-7,"MEAN_MOTION_DDOT":0},{"OBJECT_NAME":"QIANFAN-9","OBJECT_ID":"2024-140J","EPOCH":"2026-07-23T20:04:47.227872","CLASSIFICATION_TYPE":"U","MEAN_MOTION":13.51022271,"ECCENTRICITY":0.0013923,"INCLINATION":88.9729,"RA_OF_ASC_NODE":276.1977,"ARG_OF_PERICENTER":272.3566,"MEAN_ANOMALY":87.5991,"EPHEMERIS_TYPE":0,"NORAD_CAT_ID":60387,"ELEMENT_SET_NO":999,"REV_AT_EPOCH":9745,"BSTAR":0.000095737,"MEAN_MOTION_DOT":7.4e-7,"MEAN_MOTION_DDOT":0},{"OBJECT_NAME":"QIANFAN-10","OBJECT_ID":"2024-140K","EPOCH":"2026-07-23T20:10:43.297824","CLASSIFICATION_TYPE":"U","MEAN_MOTION":13.51023436,"ECCENTRICITY":0.0012682,"INCLINATION":88.974,"RA_OF_ASC_NODE":275.5678,"ARG_OF_PERICENTER":245.6287,"MEAN_ANOMALY":114.3541,"EPHEMERIS_TYPE":0,"NORAD_CAT_ID":60388,"ELEMENT_SET_NO":999,"REV_AT_EPOCH":9758,"BSTAR":0.000086137,"MEAN_MOTION_DOT":6.8e-7,"MEAN_MOTION_DDOT":0},{"OBJECT_NAME":"QIANFAN-11","OBJECT_ID":"2024-140L","EPOCH":"2026-07-23T19:17:31.009632","CLASSIFICATION_TYPE":"U","MEAN_MOTION":13.51017264,"ECCENTRICITY":0.001196,"INCLINATION":88.9665,"RA_OF_ASC_NODE":275.991,"ARG_OF_PERICENTER":272.0644,"MEAN_ANOMALY":87.9137,"EPHEMERIS_TYPE":0,"NORAD_CAT_ID":60389,"ELEMENT_SET_NO":999,"REV_AT_EPOCH":9723,"BSTAR":0.000070858,"MEAN_MOTION_DOT":5.8e-7,"MEAN_MOTION_DDOT":0},{"OBJECT_NAME":"QIANFAN-12","OBJECT_ID":"2024-140M","EPOCH":"2026-07-23T19:47:12.931008","CLASSIFICATION_TYPE":"U","MEAN_MOTION":13.51019515,"ECCENTRICITY":0.0010775,"INCLINATION":88.9708,"RA_OF_ASC_NODE":276.1294,"ARG_OF_PERICENTER":281.8471,"MEAN_ANOMALY":78.1471,"EPHEMERIS_TYPE":0,"NORAD_CAT_ID":60390,"ELEMENT_SET_NO":999,"REV_AT_EPOCH":9736,"BSTAR":0.00011729,"MEAN_MOTION_DOT":8.8e-7,"MEAN_MOTION_DDOT":0},{"OBJECT_NAME":"QIANFAN-13","OBJECT_ID":"2024-140N","EPOCH":"2026-07-23T19:05:40.835328","CLASSIFICATION_TYPE":"U","MEAN_MOTION":13.51019583,"ECCENTRICITY":0.0010598,"INCLINATION":88.9721,"RA_OF_ASC_NODE":276.2593,"ARG_OF_PERICENTER":285.2541,"MEAN_ANOMALY":74.7438,"EPHEMERIS_TYPE":0,"NORAD_CAT_ID":60391,"ELEMENT_SET_NO":999,"REV_AT_EPOCH":9738,"BSTAR":0.000089131,"MEAN_MOTION_DOT":7e-7,"MEAN_MOTION_DDOT":0},{"OBJECT_NAME":"QIANFAN-14","OBJECT_ID":"2024-140P","EPOCH":"2026-07-23T19:41:22.397568","CLASSIFICATION_TYPE":"U","MEAN_MOTION":13.51022439,"ECCENTRICITY":0.0014277,"INCLINATION":88.9699,"RA_OF_ASC_NODE":276.1072,"ARG_OF_PERICENTER":284.6664,"MEAN_ANOMALY":75.2904,"EPHEMERIS_TYPE":0,"NORAD_CAT_ID":60392,"ELEMENT_SET_NO":999,"REV_AT_EPOCH":9739,"BSTAR":0.000016594,"MEAN_MOTION_DOT":2.3e-7,"MEAN_MOTION_DDOT":0},{"OBJECT_NAME":"QIANFAN-15","OBJECT_ID":"2024-140Q","EPOCH":"2026-07-23T19:53:09.147840","CLASSIFICATION_TYPE":"U","MEAN_MOTION":13.51013538,"ECCENTRICITY":0.0010098,"INCLINATION":88.9723,"RA_OF_ASC_NODE":276.1159,"ARG_OF_PERICENTER":268.1361,"MEAN_ANOMALY":91.8633,"EPHEMERIS_TYPE":0,"NORAD_CAT_ID":60393,"ELEMENT_SET_NO":999,"REV_AT_EPOCH":9738,"BSTAR":0.000097552,"MEAN_MOTION_DOT":7.5e-7,"MEAN_MOTION_DDOT":0},{"OBJECT_NAME":"QIANFAN-16","OBJECT_ID":"2024-140R","EPOCH":"2026-07-23T19:35:20.715936","CLASSIFICATION_TYPE":"U","MEAN_MOTION":13.51021503,"ECCENTRICITY":0.0012261,"INCLINATION":88.9726,"RA_OF_ASC_NODE":276.2435,"ARG_OF_PERICENTER":289.5524,"MEAN_ANOMALY":70.4303,"EPHEMERIS_TYPE":0,"NORAD_CAT_ID":60394,"ELEMENT_SET_NO":999,"REV_AT_EPOCH":9729,"BSTAR":0.00010165,"MEAN_MOTION_DOT":7.8e-7,"MEAN_MOTION_DDOT":0}]}
